{"type": "FeatureCollection", "features": [ {"type": "Feature", "properties": {"norad_id": 38779, "name": "GSAT-10 (GAGAN/PRN 128)", "group": "gnss", "lat": 0.012513378007958688, "lon": 86.98595301894858, "alt_km": 35778.57880459783, "timestamp": "2025-12-10T18:57:00.308445+00:00", "meta": {"OBJECT_NAME": "GSAT-10 (GAGAN/PRN 128)", "OBJECT_ID": "2012-051B", "EPOCH": "2025-12-10T00:35:38.776704", "MEAN_MOTION": 1.00273767, "ECCENTRICITY": 0.00023131, "INCLINATION": 0.0553, "RA_OF_ASC_NODE": 262.8411, "ARG_OF_PERICENTER": 228.584, "MEAN_ANOMALY": 39.4837, "EPHEMERIS_TYPE": 0, "CLASSIFICATION_TYPE": "U", "NORAD_CAT_ID": 38779, "ELEMENT_SET_NO": 999, "REV_AT_EPOCH": 4820, "BSTAR": 0, "MEAN_MOTION_DOT": -1.62e-06, "MEAN_MOTION_DDOT": 0}, "tle": {"line1": "1 38779U 12051B   25344.02475436 -.00000162  00000+0  00000+0 0  9990", "line2": "2 38779   0.0553 262.8411 0002313 228.5840  39.4837  1.00273767 48202"}}, "geometry": {"type": "Point", "coordinates": [86.98595301894858, 0.012513378007958688]}}, {"type": "Feature", "properties": {"norad_id": 38833, "name": "GPS BIIF-3  (PRN 24)", "group": "gnss", "lat": -37.1352150722639, "lon": 117.27953485210271, "alt_km": 20359.122095641083, "timestamp": "2025-12-10T18:57:00.308456+00:00", "meta": {"OBJECT_NAME": "GPS BIIF-3  (PRN 24)", "OBJECT_ID": "2012-053A", "EPOCH": "2025-12-09T20:38:00.572640", "MEAN_MOTION": 2.00564945, "ECCENTRICITY": 0.0175755, "INCLINATION": 53.5569, "RA_OF_ASC_NODE": 151.3565, "ARG_OF_PERICENTER": 63.953, "MEAN_ANOMALY": 297.8432, "EPHEMERIS_TYPE": 0, "CLASSIFICATION_TYPE": "U", "NORAD_CAT_ID": 38833, "ELEMENT_SET_NO": 999, "REV_AT_EPOCH": 9564, "BSTAR": 0, "MEAN_MOTION_DOT": 6.8e-07, "MEAN_MOTION_DDOT": 0}, "tle": {"line1": "1 38833U 12053A   25343.85972885  .00000068  00000+0  00000+0 0  9997", "line2": "2 38833  53.5569 151.3565 0175755  63.9530 297.8432  2.00564945 95646"}}, "geometry": {"type": "Point", "coordinates": [117.27953485210271, -37.1352150722639]}}, {"type": "Feature", "properties": {"norad_id": 38857, "name": "GSAT0103 (GALILEO-FM3)", "group": "gnss", "lat": 45.90196608440883, "lon": -118.03802121441689, "alt_km": 23223.256475677463, "timestamp": "2025-12-10T18:57:00.308468+00:00", "meta": {"OBJECT_NAME": "GSAT0103 (GALILEO-FM3)", "OBJECT_ID": "2012-055A", "EPOCH": "2025-12-08T20:02:14.787168", "MEAN_MOTION": 1.70473288, "ECCENTRICITY": 0.00025504, "INCLINATION": 55.6903, "RA_OF_ASC_NODE": 106.7738, "ARG_OF_PERICENTER": 268.6106, "MEAN_ANOMALY": 91.3235, "EPHEMERIS_TYPE": 0, "CLASSIFICATION_TYPE": "U", "NORAD_CAT_ID": 38857, "ELEMENT_SET_NO": 999, "REV_AT_EPOCH": 8176, "BSTAR": 0, "MEAN_MOTION_DOT": 1.1e-07, "MEAN_MOTION_DDOT": 0}, "tle": {"line1": "1 38857U 12055A   25342.83489337  .00000011  00000+0  00000+0 0  9995", "line2": "2 38857  55.6903 106.7738 0002550 268.6106  91.3235  1.70473288 81769"}}, "geometry": {"type": "Point", "coordinates": [-118.03802121441689, 45.90196608440883]}}, {"type": "Feature", "properties": {"norad_id": 38953, "name": "BEIDOU-2 G6 (C02)", "group": "gnss", "lat": 0.8782864897709401, "lon": 88.08808941112055, "alt_km": 35782.8310754249, "timestamp": "2025-12-10T18:57:00.308479+00:00", "meta": {"OBJECT_NAME": "BEIDOU-2 G6 (C02)", "OBJECT_ID": "2012-059A", "EPOCH": "2025-12-10T13:42:56.686752", "MEAN_MOTION": 1.00269701, "ECCENTRICITY": 0.000758, "INCLINATION": 3.9437, "RA_OF_ASC_NODE": 75.5193, "ARG_OF_PERICENTER": 289.1803, "MEAN_ANOMALY": 4.604, "EPHEMERIS_TYPE": 0, "CLASSIFICATION_TYPE": "U", "NORAD_CAT_ID": 38953, "ELEMENT_SET_NO": 999, "REV_AT_EPOCH": 4801, "BSTAR": 0, "MEAN_MOTION_DOT": -1.71e-06, "MEAN_MOTION_DDOT": 0}, "tle": {"line1": "1 38953U 12059A   25344.57148943 -.00000171  00000+0  00000+0 0  9992", "line2": "2 38953   3.9437  75.5193 0007580 289.1803   4.6040  1.00269701 48010"}}, "geometry": {"type": "Point", "coordinates": [88.08808941112055, 0.8782864897709401]}}, {"type": "Feature", "properties": {"norad_id": 38977, "name": "LUCH 5B (SDCM/PRN 125)", "group": "gnss", "lat": -9.050217217298432, "lon": -11.892190479980583, "alt_km": 35794.375290405624, "timestamp": "2025-12-10T18:57:00.308491+00:00", "meta": {"OBJECT_NAME": "LUCH 5B (SDCM/PRN 125)", "OBJECT_ID": "2012-061A", "EPOCH": "2025-12-09T10:04:20.301024", "MEAN_MOTION": 1.00272312, "ECCENTRICITY": 0.00072, "INCLINATION": 10.0741, "RA_OF_ASC_NODE": 51.7379, "ARG_OF_PERICENTER": 192.1365, "MEAN_ANOMALY": 329.2783, "EPHEMERIS_TYPE": 0, "CLASSIFICATION_TYPE": "U", "NORAD_CAT_ID": 38977, "ELEMENT_SET_NO": 999, "REV_AT_EPOCH": 4770, "BSTAR": 0, "MEAN_MOTION_DOT": -1.38e-06, "MEAN_MOTION_DDOT": 0}, "tle": {"line1": "1 38977U 12061A   25343.41967941 -.00000138  00000+0  00000+0 0  9993", "line2": "2 38977  10.0741  51.7379 0007200 192.1365 329.2783  1.00272312 47707"}}, "geometry": {"type": "Point", "coordinates": [-11.892190479980583, -9.050217217298432]}}, {"type": "Feature", "properties": {"norad_id": 39155, "name": "COSMOS 2485 (747)", "group": "gnss", "lat": 35.75447661321407, "lon": 99.24965254734128, "alt_km": 19187.610386890534, "timestamp": "2025-12-10T18:57:00.308505+00:00", "meta": {"OBJECT_NAME": "COSMOS 2485 (747)", "OBJECT_ID": "2013-019A", "EPOCH": "2025-12-09T07:54:23.495904", "MEAN_MOTION": 2.1310286, "ECCENTRICITY": 0.00245626, "INCLINATION": 65.3117, "RA_OF_ASC_NODE": 79.982, "ARG_OF_PERICENTER": 229.1601, "MEAN_ANOMALY": 130.6433, "EPHEMERIS_TYPE": 0, "CLASSIFICATION_TYPE": "U", "NORAD_CAT_ID": 39155, "ELEMENT_SET_NO": 999, "REV_AT_EPOCH": 9823, "BSTAR": 0, "MEAN_MOTION_DOT": -1.3e-07, "MEAN_MOTION_DDOT": 0}, "tle": {"line1": "1 39155U 13019A   25343.32943861 -.00000013  00000+0  00000+0 0  9993", "line2": "2 39155  65.3117  79.9820 0024562 229.1601 130.6433  2.13102860 98238"}}, "geometry": {"type": "Point", "coordinates": [99.24965254734128, 35.75447661321407]}}, {"type": "Feature", "properties": {"norad_id": 39166, "name": "GPS BIIF-4  (PRN 27)", "group": "gnss", "lat": 39.261402112834844, "lon": -47.95915965013837, "alt_km": 19812.174071834525, "timestamp": "2025-12-10T18:57:00.308517+00:00", "meta": {"OBJECT_NAME": "GPS BIIF-4  (PRN 27)", "OBJECT_ID": "2013-023A", "EPOCH": "2025-12-10T05:20:05.646048", "MEAN_MOTION": 2.00565117, "ECCENTRICITY": 0.0137734, "INCLINATION": 54.6542, "RA_OF_ASC_NODE": 276.6706, "ARG_OF_PERICENTER": 48.5876, "MEAN_ANOMALY": 312.6029, "EPHEMERIS_TYPE": 0, "CLASSIFICATION_TYPE": "U", "NORAD_CAT_ID": 39166, "ELEMENT_SET_NO": 999, "REV_AT_EPOCH": 9209, "BSTAR": 0, "MEAN_MOTION_DOT": -5.9e-07, "MEAN_MOTION_DDOT": 0}, "tle": {"line1": "1 39166U 13023A   25344.22228757 -.00000059  00000+0  00000+0 0  9990", "line2": "2 39166  54.6542 276.6706 0137734  48.5876 312.6029  2.00565117 92090"}}, "geometry": {"type": "Point", "coordinates": [-47.95915965013837, 39.261402112834844]}}, {"type": "Feature", "properties": {"norad_id": 39199, "name": "IRNSS-1A", "group": "gnss", "lat": -4.129007561485768, "lon": 60.7377061522544, "alt_km": 35873.55840331745, "timestamp": "2025-12-10T18:57:00.308530+00:00", "meta": {"OBJECT_NAME": "IRNSS-1A", "OBJECT_ID": "2013-034A", "EPOCH": "2025-12-02T19:49:26.431104", "MEAN_MOTION": 1.00279053, "ECCENTRICITY": 0.00216608, "INCLINATION": 35.2852, "RA_OF_ASC_NODE": 66.6964, "ARG_OF_PERICENTER": 185.4059, "MEAN_ANOMALY": 172.3398, "EPHEMERIS_TYPE": 0, "CLASSIFICATION_TYPE": "U", "NORAD_CAT_ID": 39199, "ELEMENT_SET_NO": 999, "REV_AT_EPOCH": 4539, "BSTAR": 0, "MEAN_MOTION_DOT": 6.5e-07, "MEAN_MOTION_DDOT": 0}, "tle": {"line1": "1 39199U 13034A   25336.82600036  .00000065  00000+0  00000+0 0  9995", "line2": "2 39199  35.2852  66.6964 0021660 185.4059 172.3398  1.00279053 45393"}}, "geometry": {"type": "Point", "coordinates": [60.7377061522544, -4.129007561485768]}}, {"type": "Feature", "properties": {"norad_id": 39533, "name": "GPS BIIF-5  (PRN 30)", "group": "gnss", "lat": 40.09020386514794, "lon": -164.65249973836268, "alt_km": 20385.03000842789, "timestamp": "2025-12-10T18:57:00.308543+00:00", "meta": {"OBJECT_NAME": "GPS BIIF-5  (PRN 30)", "OBJECT_ID": "2014-008A", "EPOCH": "2025-12-09T17:13:43.085856", "MEAN_MOTION": 2.00574232, "ECCENTRICITY": 0.00791313, "INCLINATION": 53.6308, "RA_OF_ASC_NODE": 157.0479, "ARG_OF_PERICENTER": 226.4542, "MEAN_ANOMALY": 132.8924, "EPHEMERIS_TYPE": 0, "CLASSIFICATION_TYPE": "U", "NORAD_CAT_ID": 39533, "ELEMENT_SET_NO": 999, "REV_AT_EPOCH": 8588, "BSTAR": 0, "MEAN_MOTION_DOT": 6.7e-07, "MEAN_MOTION_DDOT": 0}, "tle": {"line1": "1 39533U 14008A   25343.71785979  .00000067  00000+0  00000+0 0  9997", "line2": "2 39533  53.6308 157.0479 0079131 226.4542 132.8924  2.00574232 85882"}}, "geometry": {"type": "Point", "coordinates": [-164.65249973836268, 40.09020386514794]}}, {"type": "Feature", "properties": {"norad_id": 39617, "name": "ASTRA 5B (EGNOS/PRN 123)", "group": "gnss", "lat": 0.006548810502315827, "lon": 27.533767942029105, "alt_km": 35796.863429696445, "timestamp": "2025-12-10T18:57:00.308557+00:00", "meta": {"OBJECT_NAME": "ASTRA 5B (EGNOS/PRN 123)", "OBJECT_ID": "2014-011B", "EPOCH": "2025-12-10T06:13:38.752320", "MEAN_MOTION": 1.00270998, "ECCENTRICITY": 0.000448, "INCLINATION": 0.0572, "RA_OF_ASC_NODE": 32.7136, "ARG_OF_PERICENTER": 230.7505, "MEAN_ANOMALY": 292.6692, "EPHEMERIS_TYPE": 0, "CLASSIFICATION_TYPE": "U", "NORAD_CAT_ID": 39617, "ELEMENT_SET_NO": 999, "REV_AT_EPOCH": 4277, "BSTAR": 0, "MEAN_MOTION_DOT": 1.4e-06, "MEAN_MOTION_DDOT": 0}, "tle": {"line1": "1 39617U 14011B   25344.25947630  .00000140  00000+0  00000+0 0  9990", "line2": "2 39617   0.0572  32.7136 0004480 230.7505 292.6692  1.00270998 42774"}}, "geometry": {"type": "Point", "coordinates": [27.533767942029105, 0.006548810502315827]}}]}